{"type": "FeatureCollection", "note": "Each coordinate is the representative point of the MODERN COMUNA sharing the unit's name. Good enough to place a dot on a national map, not a surveyed location, and wrong for any use that needs true placement.", "features": [{"type": "Feature", "geometry": {"type": "Point", "coordinates": [-70.16319, -29.0562]}, "properties": {"ucode": "altodelcarmen", "name": "Alto del Carmen", "matched_comuna": "Alto del Carmen", "ccode": "03302", "cells": 2}}, {"type": "Feature", "geometry": {"type": "Point", "coordinates": [-73.81243, -42.011]}, "properties": {"ucode": "ancud", "name": "Ancud", "matched_comuna": "Ancud", "ccode": "10202", "cells": 29}}, {"type": "Feature", "geometry": {"type": "Point", "coordinates": [-73.81243, -42.011]}, "properties": {"ucode": "ancud", "name": "ancud", "matched_comuna": "Ancud", "ccode": "10202", "cells": 20}}, {"type": "Feature", "geometry": {"type": "Point", "coordinates": [-71.10348, -30.25615]}, "properties": {"ucode": "andacollo", "name": "Andacollo", "matched_comuna": "Andacollo", "ccode": "04103", "cells": 10}}, {"type": "Feature", "geometry": {"type": "Point", "coordinates": [-70.23684, -32.9515]}, "properties": {"ucode": "andes", "name": "Andes", "matched_comuna": "Los Andes", "ccode": "05301", "cells": 13}}, {"type": "Feature", "geometry": {"type": "Point", "coordinates": [-70.23684, -32.9515]}, "properties": {"ucode": "andes", "name": "Ándes", "matched_comuna": "Los Andes", "ccode": "05301", "cells": 1}}, {"type": "Feature", "geometry": {"type": "Point", "coordinates": [-70.23684, -32.9515]}, "properties": {"ucode": "andeslos", "name": "Andes (Los)", "matched_comuna": "Los Andes", "ccode": "05301", "cells": 6}}, {"type": "Feature", "geometry": {"type": "Point", "coordinates": [-72.79329, -37.8032]}, "properties": {"ucode": "angol", "name": "Angol", "matched_comuna": "Angol", "ccode": "09201", "cells": 32}}, {"type": "Feature", "geometry": {"type": "Point", "coordinates": [-72.79329, -37.8032]}, "properties": {"ucode": "angol", "name": "angol", "matched_comuna": "Angol", "ccode": "09201", "cells": 40}}, {"type": "Feature", "geometry": {"type": "Point", "coordinates": [-69.32619, -24.224]}, "properties": {"ucode": "antofagasta", "name": "Antofagasta", "matched_comuna": "Antofagasta", "ccode": "02101", "cells": 33}}, {"type": "Feature", "geometry": {"type": "Point", "coordinates": [-69.32619, -24.224]}, "properties": {"ucode": "antofagasta", "name": "antofagasta", "matched_comuna": "Antofagasta", "ccode": "02101", "cells": 40}}, {"type": "Feature", "geometry": {"type": "Point", "coordinates": [-73.38018, -37.29635]}, "properties": {"ucode": "arauco", "name": "Arauco", "matched_comuna": "Arauco", "ccode": "08202", "cells": 28}}, {"type": "Feature", "geometry": {"type": "Point", "coordinates": [-69.99313, -18.47525]}, "properties": {"ucode": "arica", "name": "Arica", "matched_comuna": "Arica", "ccode": "15101", "cells": 31}}, {"type": "Feature", "geometry": {"type": "Point", "coordinates": [-70.71849, -33.74065]}, "properties": {"ucode": "buin", "name": "Buin", "matched_comuna": "Buin", "ccode": "13402", "cells": 8}}, {"type": "Feature", "geometry": {"type": "Point", "coordinates": [-70.71849, -33.74065]}, "properties": {"ucode": "buin", "name": "Buín", "matched_comuna": "Buin", "ccode": "13402", "cells": 3}}, {"type": "Feature", "geometry": {"type": "Point", "coordinates": [-72.28765, -36.79115]}, "properties": {"ucode": "bulnes", "name": "Bulnes", "matched_comuna": "Bulnes", "ccode": "16102", "cells": 13}}, {"type": "Feature", "geometry": {"type": "Point", "coordinates": [-72.28765, -36.79115]}, "properties": {"ucode": "bulnes", "name": "Búlnes", "matched_comuna": "Bulnes", "ccode": "16102", "cells": 3}}, {"type": "Feature", "geometry": {"type": "Point", "coordinates": [-70.85839, -32.42235]}, "properties": {"ucode": "cabildo", "name": "Cabildo", "matched_comuna": "Cabildo", "ccode": "05402", "cells": 6}}, {"type": "Feature", "geometry": {"type": "Point", "coordinates": [-68.52192, -22.09365]}, "properties": {"ucode": "calama", "name": "Calama", "matched_comuna": "Calama", "ccode": "02201", "cells": 12}}, {"type": "Feature", "geometry": {"type": "Point", "coordinates": [-73.19502, -41.69615]}, "properties": {"ucode": "calbuco", "name": "Calbuco", "matched_comuna": "Calbuco", "ccode": "10102", "cells": 15}}, {"type": "Feature", "geometry": {"type": "Point", "coordinates": [-70.80747, -27.23845]}, "properties": {"ucode": "caldera", "name": "Caldera", "matched_comuna": "Caldera", "ccode": "03102", "cells": 15}}, {"type": "Feature", "geometry": {"type": "Point", "coordinates": [-71.18133, -32.81255]}, "properties": {"ucode": "calera", "name": "Calera", "matched_comuna": "Calera", "ccode": "05502", "cells": 11}}, {"type": "Feature", "geometry": {"type": "Point", "coordinates": [-69.72006, -18.95945]}, "properties": {"ucode": "camarones", "name": "Camarones", "matched_comuna": "Camarones", "ccode": "15102", "cells": 6}}, {"type": "Feature", "geometry": {"type": "Point", "coordinates": [-73.42249, -37.90685]}, "properties": {"ucode": "canete", "name": "Canete", "matched_comuna": "Cañete", "ccode": "08203", "cells": 13}}, {"type": "Feature", "geometry": {"type": "Point", "coordinates": [-73.42249, -37.90685]}, "properties": {"ucode": "canete", "name": "Cañete", "matched_comuna": "Cañete", "ccode": "08203", "cells": 14}}, {"type": "Feature", "geometry": {"type": "Point", "coordinates": [-73.29094, -38.65205]}, "properties": {"ucode": "carahue", "name": "Carahue", "matched_comuna": "Carahue", "ccode": "09102", "cells": 6}}, {"type": "Feature", "geometry": {"type": "Point", "coordinates": [-73.43022, -41.63855]}, "properties": {"ucode": "carelmapu", "name": "Carelmapu", "matched_comuna": "Maullín", "ccode": "10108", "cells": 3}}, {"type": "Feature", "geometry": {"type": "Point", "coordinates": [-71.36548, -33.3222]}, "properties": {"ucode": "casablanca", "name": "Casablanca", "matched_comuna": "Casablanca", "ccode": "05102", "cells": 22}}, {"type": "Feature", "geometry": {"type": "Point", "coordinates": [-73.9153, -42.46075]}, "properties": {"ucode": "castro", "name": "Castro", "matched_comuna": "Castro", "ccode": "10201", "cells": 19}}, {"type": "Feature", "geometry": {"type": "Point", "coordinates": [-70.76368, -34.442]}, "properties": {"ucode": "caupolican", "name": "Caupolican", "matched_comuna": "Rengo", "ccode": "06115", "cells": 20}}, {"type": "Feature", "geometry": {"type": "Point", "coordinates": [-72.3461, -35.97375]}, "properties": {"ucode": "cauquenes", "name": "Cauquenes", "matched_comuna": "Cauquenes", "ccode": "07201", "cells": 45}}, {"type": "Feature", "geometry": {"type": "Point", "coordinates": [-72.3461, -35.97375]}, "properties": {"ucode": "cauquenes", "name": "Cauquenes.", "matched_comuna": "Cauquenes", "ccode": "07201", "cells": 6}}, {"type": "Feature", "geometry": {"type": "Point", "coordinates": [-72.3461, -35.97375]}, "properties": {"ucode": "cauquenes", "name": "Cauquénes", "matched_comuna": "Cauquenes", "ccode": "07201", "cells": 2}}, {"type": "Feature", "geometry": {"type": "Point", "coordinates": [-72.3461, -35.97375]}, "properties": {"ucode": "cauquenes", "name": "cauquenes", "matched_comuna": "Cauquenes", "ccode": "07201", "cells": 40}}, {"type": "Feature", "geometry": {"type": "Point", "coordinates": [-73.81243, -42.011]}, "properties": {"ucode": "chacao", "name": "Chacao", "matched_comuna": "Ancud", "ccode": "10202", "cells": 11}}, {"type": "Feature", "geometry": {"type": "Point", "coordinates": [-70.45145, -26.41645]}, "properties": {"ucode": "chanaral", "name": "Chanaral", "matched_comuna": "Chañaral", "ccode": "03201", "cells": 13}}, {"type": "Feature", "geometry": {"type": "Point", "coordinates": [-70.45145, -26.41645]}, "properties": {"ucode": "chanaral", "name": "Chañaral", "matched_comuna": "Chañaral", "ccode": "03201", "cells": 14}}, {"type": "Feature", "geometry": {"type": "Point", "coordinates": [-72.45808, -35.7166]}, "properties": {"ucode": "chanco", "name": "Chanco", "matched_comuna": "Chanco", "ccode": "07202", "cells": 10}}, {"type": "Feature", "geometry": {"type": "Point", "coordinates": [-72.04218, -36.62805]}, "properties": {"ucode": "chillan", "name": "Chillan", "matched_comuna": "Chillán", "ccode": "16101", "cells": 49}}, {"type": "Feature", "geometry": {"type": "Point", "coordinates": [-72.04218, -36.62805]}, "properties": {"ucode": "chillan", "name": "Chillán", "matched_comuna": "Chillán", "ccode": "16101", "cells": 9}}, {"type": "Feature", "geometry": {"type": "Point", "coordinates": [-72.04218, -36.62805]}, "properties": {"ucode": "chillan", "name": "chillan", "matched_comuna": "Chillán", "ccode": "16101", "cells": 40}}, {"type": "Feature", "geometry": {"type": "Point", "coordinates": [-72.21341, -36.684]}, "properties": {"ucode": "chillanviejo", "name": "Chillan Viejo", "matched_comuna": "Chillán Viejo", "ccode": "16103", "cells": 4}}, {"type": "Feature", "geometry": {"type": "Point", "coordinates": [-72.21341, -36.684]}, "properties": {"ucode": "chillanviejo", "name": "Chillan viejo", "matched_comuna": "Chillán Viejo", "ccode": "16103", "cells": 4}}, {"type": "Feature", "geometry": {"type": "Point", "coordinates": [-72.21341, -36.684]}, "properties": {"ucode": "chillanviejo", "name": "Chillán Viejo", "matched_comuna": "Chillán Viejo", "ccode": "16103", "cells": 2}}, {"type": "Feature", "geometry": {"type": "Point", "coordinates": [-71.01042, -34.73915]}, "properties": {"ucode": "chimbarongo", "name": "Chimbarongo", "matched_comuna": "Chimbarongo", "ccode": "06303", "cells": 6}}, {"type": "Feature", "geometry": {"type": "Point", "coordinates": [-73.90041, -42.68575]}, "properties": {"ucode": "chonchi", "name": "Chonchi", "matched_comuna": "Chonchi", "ccode": "10203", "cells": 6}}, {"type": "Feature", "geometry": {"type": "Point", "coordinates": [-72.73899, -36.18295]}, "properties": {"ucode": "cobquecura", "name": "Cobquecura", "matched_comuna": "Cobquecura", "ccode": "16202", "cells": 6}}, {"type": "Feature", "geometry": {"type": "Point", "coordinates": [-72.73686, -36.504]}, "properties": {"ucode": "coelemu", "name": "Coelemu", "matched_comuna": "Coelemu", "ccode": "16203", "cells": 32}}, {"type": "Feature", "geometry": {"type": "Point", "coordinates": [-71.55165, -36.72465]}, "properties": {"ucode": "coihueco", "name": "Coihueco", "matched_comuna": "Coihueco", "ccode": "16302", "cells": 6}}, {"type": "Feature", "geometry": {"type": "Point", "coordinates": [-70.95867, -34.27615]}, "properties": {"ucode": "coinco", "name": "Coínco", "matched_comuna": "Coinco", "ccode": "06103", "cells": 3}}, {"type": "Feature", "geometry": {"type": "Point", "coordinates": [-72.26722, -37.986]}, "properties": {"ucode": "collipulli", "name": "Collipulli", "matched_comuna": "Collipulli", "ccode": "09202", "cells": 20}}, {"type": "Feature", "geometry": {"type": "Point", "coordinates": [-71.09289, -34.27305]}, "properties": {"ucode": "coltauco", "name": "Coltauco", "matched_comuna": "Coltauco", "ccode": "06104", "cells": 11}}, {"type": "Feature", "geometry": {"type": "Point", "coordinates": [-70.98425, -31.1386]}, "properties": {"ucode": "combarbala", "name": "Combarbala", "matched_comuna": "Combarbalá", "ccode": "04302", "cells": 17}}, {"type": "Feature", "geometry": {"type": "Point", "coordinates": [-70.98425, -31.1386]}, "properties": {"ucode": "combarbala", "name": "Combarbalá", "matched_comuna": "Combarbalá", "ccode": "04302", "cells": 17}}, {"type": "Feature", "geometry": {"type": "Point", "coordinates": [-72.95967, -36.8456]}, "properties": {"ucode": "concepcion", "name": "Concepcion", "matched_comuna": "Concepción", "ccode": "08101", "cells": 24}}, {"type": "Feature", "geometry": {"type": "Point", "coordinates": [-72.95967, -36.8456]}, "properties": {"ucode": "concepcion", "name": "Concepción", "matched_comuna": "Concepción", "ccode": "08101", "cells": 34}}, {"type": "Feature", "geometry": {"type": "Point", "coordinates": [-72.95967, -36.8456]}, "properties": {"ucode": "concepcion", "name": "concepcion", "matched_comuna": "Concepción", "ccode": "08101", "cells": 40}}, {"type": "Feature", "geometry": {"type": "Point", "coordinates": [-72.95967, -36.8456]}, "properties": {"ucode": "concepcionhospitaldehombres", "name": "Concepción (Hospital de Hombres)", "matched_comuna": "Concepción", "ccode": "08101", "cells": 6}}, {"type": "Feature", "geometry": {"type": "Point", "coordinates": [-72.95967, -36.8456]}, "properties": {"ucode": "concepcionhospitaldemujeres", "name": "Concepción (Hospital de Mujeres)", "matched_comuna": "Concepción", "ccode": "08101", "cells": 6}}, {"type": "Feature", "geometry": {"type": "Point", "coordinates": [-72.23015, -35.35135]}, "properties": {"ucode": "constitucion", "name": "Constitucion", "matched_comuna": "Constitución", "ccode": "07102", "cells": 31}}, {"type": "Feature", "geometry": {"type": "Point", "coordinates": [-72.23015, -35.35135]}, "properties": {"ucode": "constitucion", "name": "Constitución", "matched_comuna": "Constitución", "ccode": "07102", "cells": 11}}, {"type": "Feature", "geometry": {"type": "Point", "coordinates": [-72.23015, -35.35135]}, "properties": {"ucode": "constitucion", "name": "constitucion", "matched_comuna": "Constitución", "ccode": "07102", "cells": 40}}, {"type": "Feature", "geometry": {"type": "Point", "coordinates": [-69.85614, -27.423]}, "properties": {"ucode": "copiapo", "name": "Copiapo", "matched_comuna": "Copiapó", "ccode": "03101", "cells": 14}}, {"type": "Feature", "geometry": {"type": "Point", "coordinates": [-69.85614, -27.423]}, "properties": {"ucode": "copiapo", "name": "Copiapó", "matched_comuna": "Copiapó", "ccode": "03101", "cells": 39}}, {"type": "Feature", "geometry": {"type": "Point", "coordinates": [-69.85614, -27.423]}, "properties": {"ucode": "copiapo", "name": "copiapo", "matched_comuna": "Copiapó", "ccode": "03101", "cells": 40}}, {"type": "Feature", "geometry": {"type": "Point", "coordinates": [-71.33096, -30.2254]}, "properties": {"ucode": "coquimbo", "name": "Coquimbo", "matched_comuna": "Coquimbo", "ccode": "04102", "cells": 28}}, {"type": "Feature", "geometry": {"type": "Point", "coordinates": [-73.08017, -37.0083]}, "properties": {"ucode": "coronel", "name": "Coronel", "matched_comuna": "Coronel", "ccode": "08102", "cells": 19}}, {"type": "Feature", "geometry": {"type": "Point", "coordinates": [-73.38488, -39.98435]}, "properties": {"ucode": "corral", "name": "Corral", "matched_comuna": "Corral", "ccode": "14102", "cells": 10}}, {"type": "Feature", "geometry": {"type": "Point", "coordinates": [-73.22578, -37.5103]}, "properties": {"ucode": "curanilahue", "name": "Curanilahue", "matched_comuna": "Curanilahue", "ccode": "08205", "cells": 2}}, {"type": "Feature", "geometry": {"type": "Point", "coordinates": [-71.95474, -35.16065]}, "properties": {"ucode": "curepto", "name": "Curepto", "matched_comuna": "Curepto", "ccode": "07103", "cells": 21}}, {"type": "Feature", "geometry": {"type": "Point", "coordinates": [-70.90629, -35.2206]}, "properties": {"ucode": "curico", "name": "Curico", "matched_comuna": "Curicó", "ccode": "07301", "cells": 13}}, {"type": "Feature", "geometry": {"type": "Point", "coordinates": [-70.90629, -35.2206]}, "properties": {"ucode": "curico", "name": "Curicó", "matched_comuna": "Curicó", "ccode": "07301", "cells": 38}}, {"type": "Feature", "geometry": {"type": "Point", "coordinates": [-70.90629, -35.2206]}, "properties": {"ucode": "curico", "name": "curico", "matched_comuna": "Curicó", "ccode": "07301", "cells": 40}}, {"type": "Feature", "geometry": {"type": "Point", "coordinates": [-73.78986, -42.31225]}, "properties": {"ucode": "dalcahue", "name": "Dalcahue", "matched_comuna": "Dalcahue", "ccode": "10205", "cells": 10}}, {"type": "Feature", "geometry": {"type": "Point", "coordinates": [-71.37231, -33.1248]}, "properties": {"ucode": "delegaciondequilpue", "name": "Delegacion de Quilpue", "matched_comuna": "Quilpué", "ccode": "05801", "cells": 3}}, {"type": "Feature", "geometry": {"type": "Point", "coordinates": [-70.90939, -34.2036]}, "properties": {"ucode": "donihue", "name": "Donihue", "matched_comuna": "Doñihue", "ccode": "06105", "cells": 4}}, {"type": "Feature", "geometry": {"type": "Point", "coordinates": [-70.90939, -34.2036]}, "properties": {"ucode": "donihue", "name": "Doñihue", "matched_comuna": "Doñihue", "ccode": "06105", "cells": 2}}, {"type": "Feature", "geometry": {"type": "Point", "coordinates": [-70.43742, -29.8776]}, "properties": {"ucode": "elqui", "name": "Elqui", "matched_comuna": "Vicuña", "ccode": "04106", "cells": 22}}, {"type": "Feature", "geometry": {"type": "Point", "coordinates": [-72.31155, -35.61105]}, "properties": {"ucode": "empedrado", "name": "Empedrado", "matched_comuna": "Empedrado", "ccode": "07104", "cells": 6}}, {"type": "Feature", "geometry": {"type": "Point", "coordinates": [-72.43773, -38.06105]}, "properties": {"ucode": "ercilla", "name": "Ercilla", "matched_comuna": "Ercilla", "ccode": "09204", "cells": 6}}, {"type": "Feature", "geometry": {"type": "Point", "coordinates": [-72.72197, -36.80235]}, "properties": {"ucode": "florida", "name": "Florida", "matched_comuna": "Florida", "ccode": "08104", "cells": 9}}, {"type": "Feature", "geometry": {"type": "Point", "coordinates": [-72.4855, -38.97465]}, "properties": {"ucode": "freire", "name": "Freire", "matched_comuna": "Freire", "ccode": "09105", "cells": 6}}, {"type": "Feature", "geometry": {"type": "Point", "coordinates": [-71.21105, -28.73585]}, "properties": {"ucode": "freirina", "name": "Freirina", "matched_comuna": "Freirina", "ccode": "03303", "cells": 36}}, {"type": "Feature", "geometry": {"type": "Point", "coordinates": [-73.08474, -41.0904]}, "properties": {"ucode": "frutillar", "name": "Frutillar", "matched_comuna": "Frutillar", "ccode": "10105", "cells": 7}}, {"type": "Feature", "geometry": {"type": "Point", "coordinates": [-72.69633, -39.15465]}, "properties": {"ucode": "gorbea", "name": "Gorbea", "matched_comuna": "Gorbea", "ccode": "09107", "cells": 3}}, {"type": "Feature", "geometry": {"type": "Point", "coordinates": [-72.85542, -37.05]}, "properties": {"ucode": "hualqui", "name": "Hualqui", "matched_comuna": "Hualqui", "ccode": "08105", "cells": 4}}, {"type": "Feature", "geometry": {"type": "Point", "coordinates": [-71.08849, -28.29295]}, "properties": {"ucode": "huasco", "name": "Huasco", "matched_comuna": "Huasco", "ccode": "03304", "cells": 8}}, {"type": "Feature", "geometry": {"type": "Point", "coordinates": [-70.94614, -31.5926]}, "properties": {"ucode": "illapel", "name": "Illapel", "matched_comuna": "Illapel", "ccode": "04201", "cells": 37}}, {"type": "Feature", "geometry": {"type": "Point", "coordinates": [-70.94614, -31.5926]}, "properties": {"ucode": "illapel", "name": "illapel", "matched_comuna": "Illapel", "ccode": "04201", "cells": 20}}, {"type": "Feature", "geometry": {"type": "Point", "coordinates": [-72.95842, -38.70595]}, "properties": {"ucode": "imperial", "name": "Imperial", "matched_comuna": "Nueva Imperial", "ccode": "09111", "cells": 6}}, {"type": "Feature", "geometry": {"type": "Point", "coordinates": [-70.1633, -20.2093]}, "properties": {"ucode": "iquique", "name": "Iquique", "matched_comuna": "Iquique", "ccode": "01101", "cells": 38}}, {"type": "Feature", "geometry": {"type": "Point", "coordinates": [-70.1633, -20.2093]}, "properties": {"ucode": "iquique", "name": "iquique", "matched_comuna": "Iquique", "ccode": "01101", "cells": 40}}, {"type": "Feature", "geometry": {"type": "Point", "coordinates": [-70.54506, -33.53475]}, "properties": {"ucode": "laflorida", "name": "La Florida", "matched_comuna": "La Florida", "ccode": "13110", "cells": 4}}, {"type": "Feature", "geometry": {"type": "Point", "coordinates": [-72.58545, -37.30845]}, "properties": {"ucode": "laja", "name": "Laja", "matched_comuna": "Laja", "ccode": "08304", "cells": 14}}, {"type": "Feature", "geometry": {"type": "Point", "coordinates": [-71.26223, -32.3798]}, "properties": {"ucode": "laligua", "name": "La Ligua", "matched_comuna": "La Ligua", "ccode": "05401", "cells": 3}}, {"type": "Feature", "geometry": {"type": "Point", "coordinates": [-71.09421, -29.83645]}, "properties": {"ucode": "laserena", "name": "La Serena", "matched_comuna": "La Serena", "ccode": "04101", "cells": 28}}, {"type": "Feature", "geometry": {"type": "Point", "coordinates": [-71.09421, -29.83645]}, "properties": {"ucode": "laserena", "name": "la_serena", "matched_comuna": "La Serena", "ccode": "04101", "cells": 40}}, {"type": "Feature", "geometry": {"type": "Point", "coordinates": [-73.3038, -40.1719]}, "properties": {"ucode": "launion", "name": "La Union", "matched_comuna": "La Unión", "ccode": "14201", "cells": 2}}, {"type": "Feature", "geometry": {"type": "Point", "coordinates": [-73.3038, -40.1719]}, "properties": {"ucode": "launion", "name": "La Unión", "matched_comuna": "La Unión", "ccode": "14201", "cells": 3}}, {"type": "Feature", "geometry": {"type": "Point", "coordinates": [-72.26624, -38.54605]}, "properties": {"ucode": "lautaro", "name": "Lautaro", "matched_comuna": "Lautaro", "ccode": "09108", "cells": 23}}, {"type": "Feature", "geometry": {"type": "Point", "coordinates": [-73.59656, -37.62305]}, "properties": {"ucode": "lebu", "name": "Lebu", "matched_comuna": "Lebu", "ccode": "08201", "cells": 27}}, {"type": "Feature", "geometry": {"type": "Point", "coordinates": [-73.59656, -37.62305]}, "properties": {"ucode": "lebu", "name": "lebu", "matched_comuna": "Lebu", "ccode": "08201", "cells": 20}}, {"type": "Feature", "geometry": {"type": "Point", "coordinates": [-71.26223, -32.3798]}, "properties": {"ucode": "ligua", "name": "Ligua", "matched_comuna": "La Ligua", "ccode": "05401", "cells": 32}}, {"type": "Feature", "geometry": {"type": "Point", "coordinates": [-71.23687, -33.04025]}, "properties": {"ucode": "limache", "name": "Limache", "matched_comuna": "Limache", "ccode": "05802", "cells": 33}}, {"type": "Feature", "geometry": {"type": "Point", "coordinates": [-71.29506, -35.97015]}, "properties": {"ucode": "linares", "name": "Linares", "matched_comuna": "Linares", "ccode": "07401", "cells": 42}}, {"type": "Feature", "geometry": {"type": "Point", "coordinates": [-71.29506, -35.97015]}, "properties": {"ucode": "linares", "name": "linares", "matched_comuna": "Linares", "ccode": "07401", "cells": 40}}, {"type": "Feature", "geometry": {"type": "Point", "coordinates": [-73.10873, -41.2243]}, "properties": {"ucode": "llanquihue", "name": "Llanquihue", "matched_comuna": "Llanquihue", "ccode": "10107", "cells": 13}}, {"type": "Feature", "geometry": {"type": "Point", "coordinates": [-70.89021, -32.8861]}, "properties": {"ucode": "llayllay", "name": "Llay-Llay", "matched_comuna": "Llaillay", "ccode": "05703", "cells": 7}}, {"type": "Feature", "geometry": {"type": "Point", "coordinates": [-71.95051, -35.63965]}, "properties": {"ucode": "loncomilla", "name": "Loncomilla", "matched_comuna": "San Javier", "ccode": "07406", "cells": 15}}, {"type": "Feature", "geometry": {"type": "Point", "coordinates": [-70.79082, -35.32795]}, "properties": {"ucode": "lontue", "name": "Lontue", "matched_comuna": "Molina", "ccode": "07304", "cells": 8}}, {"type": "Feature", "geometry": {"type": "Point", "coordinates": [-70.79082, -35.32795]}, "properties": {"ucode": "lontue", "name": "Lontué", "matched_comuna": "Molina", "ccode": "07304", "cells": 13}}, {"type": "Feature", "geometry": {"type": "Point", "coordinates": [-70.23684, -32.9515]}, "properties": {"ucode": "losandes", "name": "Los Andes", "matched_comuna": "Los Andes", "ccode": "05301", "cells": 15}}, {"type": "Feature", "geometry": {"type": "Point", "coordinates": [-70.23684, -32.9515]}, "properties": {"ucode": "losandes", "name": "los_andes", "matched_comuna": "Los Andes", "ccode": "05301", "cells": 20}}, {"type": "Feature", "geometry": {"type": "Point", "coordinates": [-70.23684, -32.9515]}, "properties": {"ucode": "losandesparatuberculosos", "name": "Los Andes (para tuberculosos)", "matched_comuna": "Los Andes", "ccode": "05301", "cells": 3}}, {"type": "Feature", "geometry": {"type": "Point", "coordinates": [-72.37204, -37.4232]}, "properties": {"ucode": "losangeles", "name": "Los Angeles", "matched_comuna": "Los Ángeles", "ccode": "08301", "cells": 2}}, {"type": "Feature", "geometry": {"type": "Point", "coordinates": [-72.37204, -37.4232]}, "properties": {"ucode": "losangeles", "name": "Los Ángeles", "matched_comuna": "Los Ángeles", "ccode": "08301", "cells": 5}}, {"type": "Feature", "geometry": {"type": "Point", "coordinates": [-72.37204, -37.4232]}, "properties": {"ucode": "losangeles", "name": "los_angeles", "matched_comuna": "Los Ángeles", "ccode": "08301", "cells": 40}}, {"type": "Feature", "geometry": {"type": "Point", "coordinates": [-71.25245, -31.9403]}, "properties": {"ucode": "losvilos", "name": "Los Vilos", "matched_comuna": "Los Vilos", "ccode": "04203", "cells": 4}}, {"type": "Feature", "geometry": {"type": "Point", "coordinates": [-73.10538, -37.1227]}, "properties": {"ucode": "lota", "name": "Lota", "matched_comuna": "Lota", "ccode": "08106", "cells": 18}}, {"type": "Feature", "geometry": {"type": "Point", "coordinates": [-73.04671, -38.27475]}, "properties": {"ucode": "lumaco", "name": "Lumaco", "matched_comuna": "Lumaco", "ccode": "09207", "cells": 6}}, {"type": "Feature", "geometry": {"type": "Point", "coordinates": [-70.71849, -33.74065]}, "properties": {"ucode": "maipo", "name": "Maipo", "matched_comuna": "Buin", "ccode": "13402", "cells": 13}}, {"type": "Feature", "geometry": {"type": "Point", "coordinates": [-70.84909, -34.48045]}, "properties": {"ucode": "malloa", "name": "Malloa", "matched_comuna": "Malloa", "ccode": "06109", "cells": 6}}, {"type": "Feature", "geometry": {"type": "Point", "coordinates": [-73.43022, -41.63855]}, "properties": {"ucode": "maullin", "name": "Maullin", "matched_comuna": "Maullín", "ccode": "10108", "cells": 5}}, {"type": "Feature", "geometry": {"type": "Point", "coordinates": [-73.43022, -41.63855]}, "properties": {"ucode": "maullin", "name": "Maullín", "matched_comuna": "Maullín", "ccode": "10108", "cells": 2}}, {"type": "Feature", "geometry": {"type": "Point", "coordinates": [-71.22597, -33.75105]}, "properties": {"ucode": "melipilla", "name": "Melipilla", "matched_comuna": "Melipilla", "ccode": "13501", "cells": 30}}, {"type": "Feature", "geometry": {"type": "Point", "coordinates": [-70.79082, -35.32795]}, "properties": {"ucode": "molina", "name": "Molina", "matched_comuna": "Molina", "ccode": "07304", "cells": 18}}, {"type": "Feature", "geometry": {"type": "Point", "coordinates": [-72.10108, -37.86385]}, "properties": {"ucode": "mulchen", "name": "Mulchen", "matched_comuna": "Mulchén", "ccode": "08305", "cells": 22}}, {"type": "Feature", "geometry": {"type": "Point", "coordinates": [-72.10108, -37.86385]}, "properties": {"ucode": "mulchen", "name": "Mulchén", "matched_comuna": "Mulchén", "ccode": "08305", "cells": 9}}, {"type": "Feature", "geometry": {"type": "Point", "coordinates": [-72.83314, -37.4592]}, "properties": {"ucode": "nacimiento", "name": "Nacimiento", "matched_comuna": "Nacimiento", "ccode": "08306", "cells": 19}}, {"type": "Feature", "geometry": {"type": "Point", "coordinates": [-71.20832, -34.66925]}, "properties": {"ucode": "nancagua", "name": "Nancagua", "matched_comuna": "Nancagua", "ccode": "06305", "cells": 10}}, {"type": "Feature", "geometry": {"type": "Point", "coordinates": [-71.81249, -34.01195]}, "properties": {"ucode": "navidad", "name": "Navidad", "matched_comuna": "Navidad", "ccode": "06205", "cells": 4}}, {"type": "Feature", "geometry": {"type": "Point", "coordinates": [-72.95842, -38.70595]}, "properties": {"ucode": "nuevaimperial", "name": "Nueva Imperial", "matched_comuna": "Nueva Imperial", "ccode": "09111", "cells": 12}}, {"type": "Feature", "geometry": {"type": "Point", "coordinates": [-73.12359, -40.60745]}, "properties": {"ucode": "osorno", "name": "Osorno", "matched_comuna": "Osorno", "ccode": "10301", "cells": 30}}, {"type": "Feature", "geometry": {"type": "Point", "coordinates": [-73.12359, -40.60745]}, "properties": {"ucode": "osorno", "name": "osorno", "matched_comuna": "Osorno", "ccode": "10301", "cells": 40}}, {"type": "Feature", "geometry": {"type": "Point", "coordinates": [-71.54705, -30.76295]}, "properties": {"ucode": "ovalle", "name": "Ovalle", "matched_comuna": "Ovalle", "ccode": "04301", "cells": 39}}, {"type": "Feature", "geometry": {"type": "Point", "coordinates": [-71.54705, -30.76295]}, "properties": {"ucode": "ovalle", "name": "ovalle", "matched_comuna": "Ovalle", "ccode": "04301", "cells": 20}}, {"type": "Feature", "geometry": {"type": "Point", "coordinates": [-70.38142, -30.23345]}, "properties": {"ucode": "paiguano", "name": "Paiguano", "matched_comuna": "Paiguano", "ccode": "04105", "cells": 2}}, {"type": "Feature", "geometry": {"type": "Point", "coordinates": [-70.38142, -30.23345]}, "properties": {"ucode": "paihuano", "name": "Paihuano", "matched_comuna": "Paiguano", "ccode": "04105", "cells": 2}}, {"type": "Feature", "geometry": {"type": "Point", "coordinates": [-71.36326, -34.524]}, "properties": {"ucode": "palmilla", "name": "Palmilla", "matched_comuna": "Palmilla", "ccode": "06306", "cells": 6}}, {"type": "Feature", "geometry": {"type": "Point", "coordinates": [-71.76825, -36.22905]}, "properties": {"ucode": "parral", "name": "Parral", "matched_comuna": "Parral", "ccode": "07404", "cells": 36}}, {"type": "Feature", "geometry": {"type": "Point", "coordinates": [-72.18883, -36.96565]}, "properties": {"ucode": "pemuco", "name": "Pemuco", "matched_comuna": "Pemuco", "ccode": "16105", "cells": 6}}, {"type": "Feature", "geometry": {"type": "Point", "coordinates": [-72.94751, -36.74215]}, "properties": {"ucode": "penco", "name": "Penco", "matched_comuna": "Penco", "ccode": "08107", "cells": 6}}, {"type": "Feature", "geometry": {"type": "Point", "coordinates": [-70.81387, -32.2036]}, "properties": {"ucode": "petorca", "name": "Petorca", "matched_comuna": "Petorca", "ccode": "05404", "cells": 33}}, {"type": "Feature", "geometry": {"type": "Point", "coordinates": [-71.23248, -34.3366]}, "properties": {"ucode": "peumo", "name": "Peumo", "matched_comuna": "Peumo", "ccode": "06112", "cells": 7}}, {"type": "Feature", "geometry": {"type": "Point", "coordinates": [-71.89869, -34.3708]}, "properties": {"ucode": "pichilemu", "name": "Pichilemu", "matched_comuna": "Pichilemu", "ccode": "06201", "cells": 2}}, {"type": "Feature", "geometry": {"type": "Point", "coordinates": [-69.2625, -19.5609]}, "properties": {"ucode": "pisagua", "name": "Pisagua", "matched_comuna": "Huara", "ccode": "01404", "cells": 24}}, {"type": "Feature", "geometry": {"type": "Point", "coordinates": [-70.61336, -33.4262]}, "properties": {"ucode": "providencia", "name": "Providencia", "matched_comuna": "Providencia", "ccode": "13123", "cells": 4}}, {"type": "Feature", "geometry": {"type": "Point", "coordinates": [-72.72197, -36.80235]}, "properties": {"ucode": "puchacai", "name": "Puchacai", "matched_comuna": "Florida", "ccode": "08104", "cells": 7}}, {"type": "Feature", "geometry": {"type": "Point", "coordinates": [-71.84884, -39.2801]}, "properties": {"ucode": "pucon", "name": "Pucon", "matched_comuna": "Pucón", "ccode": "09115", "cells": 2}}, {"type": "Feature", "geometry": {"type": "Point", "coordinates": [-72.58057, -41.5152]}, "properties": {"ucode": "puertomontt", "name": "Puerto Montt", "matched_comuna": "Puerto Montt", "ccode": "10101", "cells": 19}}, {"type": "Feature", "geometry": {"type": "Point", "coordinates": [-72.58057, -41.5152]}, "properties": {"ucode": "puertomontt", "name": "Puerto-Montt", "matched_comuna": "Puerto Montt", "ccode": "10101", "cells": 3}}, {"type": "Feature", "geometry": {"type": "Point", "coordinates": [-72.58057, -41.5152]}, "properties": {"ucode": "puertomontt", "name": "puerto_montt", "matched_comuna": "Puerto Montt", "ccode": "10101", "cells": 40}}, {"type": "Feature", "geometry": {"type": "Point", "coordinates": [-72.34506, -41.1248]}, "properties": {"ucode": "puertovaras", "name": "Puerto Varas", "matched_comuna": "Puerto Varas", "ccode": "10109", "cells": 10}}, {"type": "Feature", "geometry": {"type": "Point", "coordinates": [-71.34906, -53.2964]}, "properties": {"ucode": "puntaarenas", "name": "Punta Arenas", "matched_comuna": "Punta Arenas", "ccode": "12101", "cells": 3}}, {"type": "Feature", "geometry": {"type": "Point", "coordinates": [-71.34906, -53.2964]}, "properties": {"ucode": "puntaarenas", "name": "punta_arenas", "matched_comuna": "Punta Arenas", "ccode": "12101", "cells": 40}}, {"type": "Feature", "geometry": {"type": "Point", "coordinates": [-73.06878, -37.9972]}, "properties": {"ucode": "puren", "name": "Puren", "matched_comuna": "Purén", "ccode": "09208", "cells": 4}}, {"type": "Feature", "geometry": {"type": "Point", "coordinates": [-73.06878, -37.9972]}, "properties": {"ucode": "puren", "name": "Purén", "matched_comuna": "Purén", "ccode": "09208", "cells": 2}}, {"type": "Feature", "geometry": {"type": "Point", "coordinates": [-70.56733, -32.48155]}, "properties": {"ucode": "putaendo", "name": "Putaendo", "matched_comuna": "Putaendo", "ccode": "05705", "cells": 25}}, {"type": "Feature", "geometry": {"type": "Point", "coordinates": [-71.29581, -32.9007]}, "properties": {"ucode": "quillota", "name": "Quillota", "matched_comuna": "Quillota", "ccode": "05501", "cells": 43}}, {"type": "Feature", "geometry": {"type": "Point", "coordinates": [-71.29581, -32.9007]}, "properties": {"ucode": "quillota", "name": "quillota", "matched_comuna": "Quillota", "ccode": "05501", "cells": 40}}, {"type": "Feature", "geometry": {"type": "Point", "coordinates": [-71.37231, -33.1248]}, "properties": {"ucode": "quilpue", "name": "Quilpue", "matched_comuna": "Quilpué", "ccode": "05801", "cells": 4}}, {"type": "Feature", "geometry": {"type": "Point", "coordinates": [-71.37231, -33.1248]}, "properties": {"ucode": "quilpue", "name": "Quilpué", "matched_comuna": "Quilpué", "ccode": "05801", "cells": 6}}, {"type": "Feature", "geometry": {"type": "Point", "coordinates": [-73.27598, -42.64795]}, "properties": {"ucode": "quinchao", "name": "Quinchao", "matched_comuna": "Quinchao", "ccode": "10210", "cells": 6}}, {"type": "Feature", "geometry": {"type": "Point", "coordinates": [-72.5455, -36.24665]}, "properties": {"ucode": "quirihue", "name": "Quirihue", "matched_comuna": "Quirihue", "ccode": "16201", "cells": 13}}, {"type": "Feature", "geometry": {"type": "Point", "coordinates": [-70.81776, -34.1241]}, "properties": {"ucode": "rancagua", "name": "Rancagua", "matched_comuna": "Rancagua", "ccode": "06101", "cells": 176}}, {"type": "Feature", "geometry": {"type": "Point", "coordinates": [-70.81776, -34.1241]}, "properties": {"ucode": "rancagua", "name": "rancagua", "matched_comuna": "Rancagua", "ccode": "06101", "cells": 40}}, {"type": "Feature", "geometry": {"type": "Point", "coordinates": [-70.76368, -34.442]}, "properties": {"ucode": "rengo", "name": "Rengo", "matched_comuna": "Rengo", "ccode": "06115", "cells": 19}}, {"type": "Feature", "geometry": {"type": "Point", "coordinates": [-70.76368, -34.442]}, "properties": {"ucode": "rengo", "name": "rengo", "matched_comuna": "Rengo", "ccode": "06115", "cells": 20}}, {"type": "Feature", "geometry": {"type": "Point", "coordinates": [-72.60518, -40.46885]}, "properties": {"ucode": "riobueno", "name": "Rio Bueno", "matched_comuna": "Río Bueno", "ccode": "14204", "cells": 4}}, {"type": "Feature", "geometry": {"type": "Point", "coordinates": [-72.60518, -40.46885]}, "properties": {"ucode": "riobueno", "name": "Río Bueno", "matched_comuna": "Río Bueno", "ccode": "14204", "cells": 5}}, {"type": "Feature", "geometry": {"type": "Point", "coordinates": [-70.64911, -31.91005]}, "properties": {"ucode": "salamanca", "name": "Salamanca", "matched_comuna": "Salamanca", "ccode": "04204", "cells": 10}}, {"type": "Feature", "geometry": {"type": "Point", "coordinates": [-70.73638, -30.4512]}, "properties": {"ucode": "samoalto", "name": "Samo Alto", "matched_comuna": "Río Hurtado", "ccode": "04305", "cells": 6}}, {"type": "Feature", "geometry": {"type": "Point", "coordinates": [-71.50765, -33.6751]}, "properties": {"ucode": "sanantonio", "name": "San Antonio", "matched_comuna": "San Antonio", "ccode": "05601", "cells": 4}}, {"type": "Feature", "geometry": {"type": "Point", "coordinates": [-71.50765, -33.6751]}, "properties": {"ucode": "sanantonioatacama", "name": "San Antonio (Atacama)", "matched_comuna": "San Antonio", "ccode": "05601", "cells": 2}}, {"type": "Feature", "geometry": {"type": "Point", "coordinates": [-71.50765, -33.6751]}, "properties": {"ucode": "sanantoniosantiago", "name": "San Antonio (Santiago)", "matched_comuna": "San Antonio", "ccode": "05601", "cells": 2}}, {"type": "Feature", "geometry": {"type": "Point", "coordinates": [-70.68745, -33.63615]}, "properties": {"ucode": "sanbernardo", "name": "San Bernardo", "matched_comuna": "San Bernardo", "ccode": "13401", "cells": 18}}, {"type": "Feature", "geometry": {"type": "Point", "coordinates": [-72.02521, -36.37425]}, "properties": {"ucode": "sancarlos", "name": "San Carlos", "matched_comuna": "San Carlos", "ccode": "16301", "cells": 34}}, {"type": "Feature", "geometry": {"type": "Point", "coordinates": [-72.02521, -36.37425]}, "properties": {"ucode": "sancarlos", "name": "San Cárlos", "matched_comuna": "San Carlos", "ccode": "16301", "cells": 3}}, {"type": "Feature", "geometry": {"type": "Point", "coordinates": [-72.02521, -36.37425]}, "properties": {"ucode": "sancarlos", "name": "San-Cárlos", "matched_comuna": "San Carlos", "ccode": "16301", "cells": 4}}, {"type": "Feature", "geometry": {"type": "Point", "coordinates": [-70.71866, -32.73865]}, "properties": {"ucode": "sanfelipe", "name": "San Felipe", "matched_comuna": "San Felipe", "ccode": "05701", "cells": 40}}, {"type": "Feature", "geometry": {"type": "Point", "coordinates": [-70.71866, -32.73865]}, "properties": {"ucode": "sanfelipe", "name": "San-Felipe", "matched_comuna": "San Felipe", "ccode": "05701", "cells": 4}}, {"type": "Feature", "geometry": {"type": "Point", "coordinates": [-70.71866, -32.73865]}, "properties": {"ucode": "sanfelipe", "name": "san_felipe", "matched_comuna": "San Felipe", "ccode": "05701", "cells": 40}}, {"type": "Feature", "geometry": {"type": "Point", "coordinates": [-70.58647, -34.74065]}, "properties": {"ucode": "sanfernando", "name": "San Fernando", "matched_comuna": "San Fernando", "ccode": "06301", "cells": 30}}, {"type": "Feature", "geometry": {"type": "Point", "coordinates": [-70.58647, -34.74065]}, "properties": {"ucode": "sanfernando", "name": "San-Fernando", "matched_comuna": "San Fernando", "ccode": "06301", "cells": 4}}, {"type": "Feature", "geometry": {"type": "Point", "coordinates": [-70.58647, -34.74065]}, "properties": {"ucode": "sanfernando", "name": "san_fernando", "matched_comuna": "San Fernando", "ccode": "06301", "cells": 40}}, {"type": "Feature", "geometry": {"type": "Point", "coordinates": [-71.95051, -35.63965]}, "properties": {"ucode": "sanjavier", "name": "San Javier", "matched_comuna": "San Javier", "ccode": "07406", "cells": 12}}, {"type": "Feature", "geometry": {"type": "Point", "coordinates": [-71.95051, -35.63965]}, "properties": {"ucode": "sanjavierdeloncomilla", "name": "San Javier de Loncomilla", "matched_comuna": "San Javier", "ccode": "07406", "cells": 9}}, {"type": "Feature", "geometry": {"type": "Point", "coordinates": [-70.15696, -33.66905]}, "properties": {"ucode": "sanjosedemaipo", "name": "San Jose de Maipo", "matched_comuna": "San José de Maipo", "ccode": "13203", "cells": 2}}, {"type": "Feature", "geometry": {"type": "Point", "coordinates": [-70.15696, -33.66905]}, "properties": {"ucode": "sanjosedemaipo", "name": "San José de Maipo", "matched_comuna": "San José de Maipo", "ccode": "13203", "cells": 9}}, {"type": "Feature", "geometry": {"type": "Point", "coordinates": [-73.11428, -40.42495]}, "properties": {"ucode": "sanpablo", "name": "San Pablo", "matched_comuna": "San Pablo", "ccode": "10307", "cells": 7}}, {"type": "Feature", "geometry": {"type": "Point", "coordinates": [-67.90382, -23.3592]}, "properties": {"ucode": "sanpedrodeatacama", "name": "San Pedro de Atacama", "matched_comuna": "San Pedro de Atacama", "ccode": "02203", "cells": 4}}, {"type": "Feature", "geometry": {"type": "Point", "coordinates": [-72.69801, -37.2223]}, "properties": {"ucode": "sanrosendo", "name": "San Rosendo", "matched_comuna": "San Rosendo", "ccode": "08310", "cells": 6}}, {"type": "Feature", "geometry": {"type": "Point", "coordinates": [-71.40018, -34.6412]}, "properties": {"ucode": "santacruz", "name": "Santa Cruz", "matched_comuna": "Santa Cruz", "ccode": "06310", "cells": 2}}, {"type": "Feature", "geometry": {"type": "Point", "coordinates": [-70.65434, -33.4574]}, "properties": {"ucode": "santiago", "name": "Santiago", "matched_comuna": "Santiago", "ccode": "13101", "cells": 261}}, {"type": "Feature", "geometry": {"type": "Point", "coordinates": [-70.65434, -33.4574]}, "properties": {"ucode": "santiago", "name": "Santiago (*)", "matched_comuna": "Santiago", "ccode": "13101", "cells": 6}}, {"type": "Feature", "geometry": {"type": "Point", "coordinates": [-70.65434, -33.4574]}, "properties": {"ucode": "santiagohospitalsanfranciscodeborja", "name": "Santiago (Hospital San Francisco de Borja)", "matched_comuna": "Santiago", "ccode": "13101", "cells": 6}}, {"type": "Feature", "geometry": {"type": "Point", "coordinates": [-70.65434, -33.4574]}, "properties": {"ucode": "santiagohospitalsanjuandedios", "name": "Santiago (Hospital San Juan de Dios)", "matched_comuna": "Santiago", "ccode": "13101", "cells": 6}}, {"type": "Feature", "geometry": {"type": "Point", "coordinates": [-70.65434, -33.4574]}, "properties": {"ucode": "santiagohospitalsanvicentedepaul", "name": "Santiago (Hospital San Vicente de Paul)", "matched_comuna": "Santiago", "ccode": "13101", "cells": 6}}, {"type": "Feature", "geometry": {"type": "Point", "coordinates": [-71.10207, -34.45615]}, "properties": {"ucode": "sanvicente", "name": "San Vicente", "matched_comuna": "San Vicente", "ccode": "06117", "cells": 2}}, {"type": "Feature", "geometry": {"type": "Point", "coordinates": [-71.09421, -29.83645]}, "properties": {"ucode": "serena", "name": "Serena", "matched_comuna": "La Serena", "ccode": "04101", "cells": 42}}, {"type": "Feature", "geometry": {"type": "Point", "coordinates": [-71.09421, -29.83645]}, "properties": {"ucode": "serenala", "name": "Serena (La)", "matched_comuna": "La Serena", "ccode": "04101", "cells": 6}}, {"type": "Feature", "geometry": {"type": "Point", "coordinates": [-69.32249, -23.2535]}, "properties": {"ucode": "sierragorda", "name": "Sierra Gorda", "matched_comuna": "Sierra Gorda", "ccode": "02103", "cells": 6}}, {"type": "Feature", "geometry": {"type": "Point", "coordinates": [-70.88435, -33.67815]}, "properties": {"ucode": "talagante", "name": "Talagante", "matched_comuna": "Talagante", "ccode": "13601", "cells": 6}}, {"type": "Feature", "geometry": {"type": "Point", "coordinates": [-71.60015, -35.42145]}, "properties": {"ucode": "talca", "name": "Talca", "matched_comuna": "Talca", "ccode": "07101", "cells": 61}}, {"type": "Feature", "geometry": {"type": "Point", "coordinates": [-71.60015, -35.42145]}, "properties": {"ucode": "talca", "name": "talca", "matched_comuna": "Talca", "ccode": "07101", "cells": 40}}, {"type": "Feature", "geometry": {"type": "Point", "coordinates": [-73.13353, -36.70415]}, "properties": {"ucode": "talcahuano", "name": "Talcahuano", "matched_comuna": "Talcahuano", "ccode": "08110", "cells": 37}}, {"type": "Feature", "geometry": {"type": "Point", "coordinates": [-73.13353, -36.70415]}, "properties": {"ucode": "talcahuano", "name": "talcahuano", "matched_comuna": "Talcahuano", "ccode": "08110", "cells": 20}}, {"type": "Feature", "geometry": {"type": "Point", "coordinates": [-69.78385, -25.31665]}, "properties": {"ucode": "taltal", "name": "Taltal", "matched_comuna": "Taltal", "ccode": "02104", "cells": 33}}, {"type": "Feature", "geometry": {"type": "Point", "coordinates": [-69.78385, -25.31665]}, "properties": {"ucode": "taltal", "name": "taltal", "matched_comuna": "Taltal", "ccode": "02104", "cells": 20}}, {"type": "Feature", "geometry": {"type": "Point", "coordinates": [-72.63157, -38.6678]}, "properties": {"ucode": "temuco", "name": "Temuco", "matched_comuna": "Temuco", "ccode": "09101", "cells": 24}}, {"type": "Feature", "geometry": {"type": "Point", "coordinates": [-72.63157, -38.6678]}, "properties": {"ucode": "temuco", "name": "temuco", "matched_comuna": "Temuco", "ccode": "09101", "cells": 40}}, {"type": "Feature", "geometry": {"type": "Point", "coordinates": [-73.39326, -38.3013]}, "properties": {"ucode": "tirua", "name": "Tirua", "matched_comuna": "Tirúa", "ccode": "08207", "cells": 4}}, {"type": "Feature", "geometry": {"type": "Point", "coordinates": [-73.39326, -38.3013]}, "properties": {"ucode": "tirua", "name": "Tirúa", "matched_comuna": "Tirúa", "ccode": "08207", "cells": 3}}, {"type": "Feature", "geometry": {"type": "Point", "coordinates": [-69.38247, -21.2291]}, "properties": {"ucode": "tocopilla", "name": "Tocopilla", "matched_comuna": "Tocopilla", "ccode": "02301", "cells": 25}}, {"type": "Feature", "geometry": {"type": "Point", "coordinates": [-73.05439, -39.2112]}, "properties": {"ucode": "tolten", "name": "Tolten", "matched_comuna": "Toltén", "ccode": "09118", "cells": 4}}, {"type": "Feature", "geometry": {"type": "Point", "coordinates": [-73.05439, -39.2112]}, "properties": {"ucode": "tolten", "name": "Toltén", "matched_comuna": "Toltén", "ccode": "09118", "cells": 3}}, {"type": "Feature", "geometry": {"type": "Point", "coordinates": [-72.88832, -36.6016]}, "properties": {"ucode": "tome", "name": "Tome", "matched_comuna": "Tomé", "ccode": "08111", "cells": 7}}, {"type": "Feature", "geometry": {"type": "Point", "coordinates": [-72.88832, -36.6016]}, "properties": {"ucode": "tome", "name": "Tomé", "matched_comuna": "Tomé", "ccode": "08111", "cells": 11}}, {"type": "Feature", "geometry": {"type": "Point", "coordinates": [-72.88832, -36.6016]}, "properties": {"ucode": "tome", "name": "tome", "matched_comuna": "Tomé", "ccode": "08111", "cells": 20}}, {"type": "Feature", "geometry": {"type": "Point", "coordinates": [-72.67476, -38.24835]}, "properties": {"ucode": "traiguen", "name": "Traiguen", "matched_comuna": "Traiguén", "ccode": "09210", "cells": 13}}, {"type": "Feature", "geometry": {"type": "Point", "coordinates": [-72.67476, -38.24835]}, "properties": {"ucode": "traiguen", "name": "Traiguén", "matched_comuna": "Traiguén", "ccode": "09210", "cells": 10}}, {"type": "Feature", "geometry": {"type": "Point", "coordinates": [-72.67476, -38.24835]}, "properties": {"ucode": "traiguen", "name": "traiguen", "matched_comuna": "Traiguén", "ccode": "09210", "cells": 40}}, {"type": "Feature", "geometry": {"type": "Point", "coordinates": [-73.3038, -40.1719]}, "properties": {"ucode": "union", "name": "Union", "matched_comuna": "La Unión", "ccode": "14201", "cells": 17}}, {"type": "Feature", "geometry": {"type": "Point", "coordinates": [-73.3038, -40.1719]}, "properties": {"ucode": "union", "name": "Unión", "matched_comuna": "La Unión", "ccode": "14201", "cells": 2}}, {"type": "Feature", "geometry": {"type": "Point", "coordinates": [-73.3038, -40.1719]}, "properties": {"ucode": "unioncoquimbo", "name": "Union (Coquimbo)", "matched_comuna": "La Unión", "ccode": "14201", "cells": 2}}, {"type": "Feature", "geometry": {"type": "Point", "coordinates": [-73.3038, -40.1719]}, "properties": {"ucode": "unionla", "name": "Unión (La)..", "matched_comuna": "La Unión", "ccode": "14201", "cells": 5}}, {"type": "Feature", "geometry": {"type": "Point", "coordinates": [-73.3038, -40.1719]}, "properties": {"ucode": "unionvaldivia", "name": "Union (Valdivia)", "matched_comuna": "La Unión", "ccode": "14201", "cells": 2}}, {"type": "Feature", "geometry": {"type": "Point", "coordinates": [-73.07192, -39.86055]}, "properties": {"ucode": "valdivia", "name": "Valdivia", "matched_comuna": "Valdivia", "ccode": "14101", "cells": 34}}, {"type": "Feature", "geometry": {"type": "Point", "coordinates": [-73.07192, -39.86055]}, "properties": {"ucode": "valdivia", "name": "valdivia", "matched_comuna": "Valdivia", "ccode": "14101", "cells": 40}}, {"type": "Feature", "geometry": {"type": "Point", "coordinates": [-70.85486, -28.68635]}, "properties": {"ucode": "vallenar", "name": "Vallenar", "matched_comuna": "Vallenar", "ccode": "03301", "cells": 42}}, {"type": "Feature", "geometry": {"type": "Point", "coordinates": [-71.60882, -33.11405]}, "properties": {"ucode": "valparaiso", "name": "Valparaiso", "matched_comuna": "Valparaíso", "ccode": "05101", "cells": 33}}, {"type": "Feature", "geometry": {"type": "Point", "coordinates": [-71.60882, -33.11405]}, "properties": {"ucode": "valparaiso", "name": "Valparaíso", "matched_comuna": "Valparaíso", "ccode": "05101", "cells": 123}}, {"type": "Feature", "geometry": {"type": "Point", "coordinates": [-71.60882, -33.11405]}, "properties": {"ucode": "valparaiso", "name": "valparaiso", "matched_comuna": "Valparaíso", "ccode": "05101", "cells": 40}}, {"type": "Feature", "geometry": {"type": "Point", "coordinates": [-72.0106, -34.83435]}, "properties": {"ucode": "vichuquen", "name": "Vichuquen", "matched_comuna": "Vichuquén", "ccode": "07309", "cells": 18}}, {"type": "Feature", "geometry": {"type": "Point", "coordinates": [-72.0106, -34.83435]}, "properties": {"ucode": "vichuquen", "name": "Vichuquén", "matched_comuna": "Vichuquén", "ccode": "07309", "cells": 5}}, {"type": "Feature", "geometry": {"type": "Point", "coordinates": [-72.23243, -38.2985]}, "properties": {"ucode": "victoria", "name": "Victoria", "matched_comuna": "Victoria", "ccode": "09211", "cells": 22}}, {"type": "Feature", "geometry": {"type": "Point", "coordinates": [-72.23243, -38.2985]}, "properties": {"ucode": "victoria", "name": "victoria", "matched_comuna": "Victoria", "ccode": "09211", "cells": 20}}, {"type": "Feature", "geometry": {"type": "Point", "coordinates": [-70.43742, -29.8776]}, "properties": {"ucode": "vicuna", "name": "Vicuna", "matched_comuna": "Vicuña", "ccode": "04106", "cells": 7}}, {"type": "Feature", "geometry": {"type": "Point", "coordinates": [-70.43742, -29.8776]}, "properties": {"ucode": "vicuna", "name": "Vicuña", "matched_comuna": "Vicuña", "ccode": "04106", "cells": 5}}, {"type": "Feature", "geometry": {"type": "Point", "coordinates": [-71.52835, -33.02655]}, "properties": {"ucode": "vinadelmar", "name": "Vina del Mar", "matched_comuna": "Viña del Mar", "ccode": "05109", "cells": 7}}, {"type": "Feature", "geometry": {"type": "Point", "coordinates": [-71.52835, -33.02655]}, "properties": {"ucode": "vinadelmar", "name": "Viña del Mar", "matched_comuna": "Viña del Mar", "ccode": "05109", "cells": 11}}, {"type": "Feature", "geometry": {"type": "Point", "coordinates": [-71.5256, -35.6866]}, "properties": {"ucode": "yerbasbuenas", "name": "Yerbas Buenas", "matched_comuna": "Yerbas Buenas", "ccode": "07408", "cells": 3}}, {"type": "Feature", "geometry": {"type": "Point", "coordinates": [-72.64606, -37.08935]}, "properties": {"ucode": "yumbel", "name": "Yumbel", "matched_comuna": "Yumbel", "ccode": "08313", "cells": 12}}, {"type": "Feature", "geometry": {"type": "Point", "coordinates": [-71.90634, -37.09685]}, "properties": {"ucode": "yungai", "name": "Yungai", "matched_comuna": "Yungay", "ccode": "16109", "cells": 2}}, {"type": "Feature", "geometry": {"type": "Point", "coordinates": [-71.90634, -37.09685]}, "properties": {"ucode": "yungay", "name": "Yungay", "matched_comuna": "Yungay", "ccode": "16109", "cells": 4}}, {"type": "Feature", "geometry": {"type": "Point", "coordinates": [-71.90634, -37.09685]}, "properties": {"ucode": "yungaynuble", "name": "Yungay (Nuble)", "matched_comuna": "Yungay", "ccode": "16109", "cells": 2}}, {"type": "Feature", "geometry": {"type": "Point", "coordinates": [-71.90634, -37.09685]}, "properties": {"ucode": "yungaysantiago", "name": "Yungay (Santiago)", "matched_comuna": "Yungay", "ccode": "16109", "cells": 2}}]}
