{"type": "FeatureCollection", "note": "Each coordinate is the representative point of the MODERN COMUNA sharing the unit's name. Good enough to place a dot on a national map, not a surveyed location, and wrong for any use that needs true placement.", "features": [{"type": "Feature", "geometry": {"type": "Point", "coordinates": [-73.81243, -42.011]}, "properties": {"ucode": "ancud", "name": "Ancud", "matched_comuna": "Ancud", "ccode": "10202", "cells": 51}}, {"type": "Feature", "geometry": {"type": "Point", "coordinates": [-69.32619, -24.224]}, "properties": {"ucode": "antofagasta", "name": "Antofagasta", "matched_comuna": "Antofagasta", "ccode": "02101", "cells": 38}}, {"type": "Feature", "geometry": {"type": "Point", "coordinates": [-69.99313, -18.47525]}, "properties": {"ucode": "arica", "name": "Arica", "matched_comuna": "Arica", "ccode": "15101", "cells": 13}}, {"type": "Feature", "geometry": {"type": "Point", "coordinates": [-70.80747, -27.23845]}, "properties": {"ucode": "caldera", "name": "Caldera", "matched_comuna": "Caldera", "ccode": "03102", "cells": 39}}, {"type": "Feature", "geometry": {"type": "Point", "coordinates": [-71.08849, -28.29295]}, "properties": {"ucode": "carrizalbajo", "name": "Carrizal Bajo", "matched_comuna": "Huasco", "ccode": "03304", "cells": 102}}, {"type": "Feature", "geometry": {"type": "Point", "coordinates": [-70.45145, -26.41645]}, "properties": {"ucode": "chanaral", "name": "Chañaral", "matched_comuna": "Chañaral", "ccode": "03201", "cells": 12}}, {"type": "Feature", "geometry": {"type": "Point", "coordinates": [-72.23015, -35.35135]}, "properties": {"ucode": "constitucion", "name": "Constitución", "matched_comuna": "Constitución", "ccode": "07102", "cells": 41}}, {"type": "Feature", "geometry": {"type": "Point", "coordinates": [-69.85614, -27.423]}, "properties": {"ucode": "copiapo", "name": "Copiapó", "matched_comuna": "Copiapó", "ccode": "03101", "cells": 28}}, {"type": "Feature", "geometry": {"type": "Point", "coordinates": [-71.33096, -30.2254]}, "properties": {"ucode": "coquimbo", "name": "Coquimbo", "matched_comuna": "Coquimbo", "ccode": "04102", "cells": 68}}, {"type": "Feature", "geometry": {"type": "Point", "coordinates": [-73.08017, -37.0083]}, "properties": {"ucode": "coronel", "name": "Coronel", "matched_comuna": "Coronel", "ccode": "08102", "cells": 35}}, {"type": "Feature", "geometry": {"type": "Point", "coordinates": [-73.38488, -39.98435]}, "properties": {"ucode": "corral", "name": "Corral", "matched_comuna": "Corral", "ccode": "14102", "cells": 8}}, {"type": "Feature", "geometry": {"type": "Point", "coordinates": [-71.08849, -28.29295]}, "properties": {"ucode": "huasco", "name": "Huasco", "matched_comuna": "Huasco", "ccode": "03304", "cells": 38}}, {"type": "Feature", "geometry": {"type": "Point", "coordinates": [-70.1633, -20.2093]}, "properties": {"ucode": "iquique", "name": "Iquique", "matched_comuna": "Iquique", "ccode": "01101", "cells": 38}}, {"type": "Feature", "geometry": {"type": "Point", "coordinates": [-69.2625, -19.5609]}, "properties": {"ucode": "pisagua", "name": "Pisagua", "matched_comuna": "Huara", "ccode": "01404", "cells": 38}}, {"type": "Feature", "geometry": {"type": "Point", "coordinates": [-72.58057, -41.5152]}, "properties": {"ucode": "puertomontt", "name": "Puerto Montt", "matched_comuna": "Puerto Montt", "ccode": "10101", "cells": 35}}, {"type": "Feature", "geometry": {"type": "Point", "coordinates": [-73.13353, -36.70415]}, "properties": {"ucode": "talcahuano", "name": "Talcahuano", "matched_comuna": "Talcahuano", "ccode": "08110", "cells": 69}}, {"type": "Feature", "geometry": {"type": "Point", "coordinates": [-69.78385, -25.31665]}, "properties": {"ucode": "taltal", "name": "Taltal", "matched_comuna": "Taltal", "ccode": "02104", "cells": 35}}, {"type": "Feature", "geometry": {"type": "Point", "coordinates": [-69.38247, -21.2291]}, "properties": {"ucode": "tocopilla", "name": "Tocopilla", "matched_comuna": "Tocopilla", "ccode": "02301", "cells": 34}}, {"type": "Feature", "geometry": {"type": "Point", "coordinates": [-72.88832, -36.6016]}, "properties": {"ucode": "tome", "name": "Tomé", "matched_comuna": "Tomé", "ccode": "08111", "cells": 8}}, {"type": "Feature", "geometry": {"type": "Point", "coordinates": [-73.07192, -39.86055]}, "properties": {"ucode": "valdivia", "name": "Valdivia", "matched_comuna": "Valdivia", "ccode": "14101", "cells": 59}}, {"type": "Feature", "geometry": {"type": "Point", "coordinates": [-71.60882, -33.11405]}, "properties": {"ucode": "valparaiso", "name": "Valparaíso", "matched_comuna": "Valparaíso", "ccode": "05101", "cells": 131}}, {"type": "Feature", "geometry": {"type": "Point", "coordinates": [-71.60882, -33.11405]}, "properties": {"ucode": "valparaiso", "name": "valparaiso", "matched_comuna": "Valparaíso", "ccode": "05101", "cells": 36}}]}
